STARLINK-31452          
1 59527U 24073S   26067.71742494 -.00000513  00000+0 -91441-5 0  9997
2 59527  43.0013 323.7939 0000772 273.2657  86.8106 15.27575157106028
LIME                    
1 62648U 25009AR  26068.73906781  .00013254  00000+0  47723-3 0  9995
2 62648  97.3985 151.4831 0001635  35.9029 324.2320 15.28703313 63766
